INTELSAT 10 (IS-10)     
1 26766U 01019A   26073.63091838 -.00000065  00000+0  00000+0 0  9994
2 26766   8.8491  60.2102 0005545 275.1611 161.8639  0.99038221 44648
INTELSAT 902 (IS-902)   
1 26900U 01039A   26073.41589085 -.00000281  00000+0  00000+0 0  9998
2 26900   5.8785  72.9325 0004607 281.7779 276.9306  1.00271092 89741
INTELSAT 904 (IS-904)   
1 27380U 02007A   26073.34829056 -.00000223  00000+0  00000+0 0  9990
2 27380   6.6822  70.3156 0006662 315.8189 239.7306  1.00271089 50815
DIRECTV 5 (TEMPO 1)     
1 27426U 02023A   26073.54670868 -.00000056  00000+0  00000+0 0  9990
2 27426   4.6347  76.4858 0003455 284.7499 257.6381  1.00272227 87173
INTELSAT 905 (IS-905)   
1 27438U 02027A   26067.69374378  .00000095  00000+0  00000+0 0  9995
2 27438   6.5009  71.0066 0003104 285.0028 282.9238  1.00272811 50358
GALAXY 3C (G-3C)        
1 27445U 02030A   26073.54974204 -.00000152  00000+0  00000+0 0  9997
2 27445   3.4874  79.3067 0001363  24.8690 171.0641  1.00272041 45549
INTELSAT 906 (IS-906)   
1 27513U 02041A   26073.58120218  .00000015  00000+0  00000+0 0  9994
2 27513   5.5629  74.0792 0003036 277.5454  93.9290  1.00271488 86087
GALAXY 13 (HORIZONS-1)  
1 27954U 03044A   26073.52064938  .00000132  00000+0  00000+0 0  9997
2 27954   1.1737  85.1203 0002208 267.2445 217.1716  1.00271614 45623
INTELSAT 10-02          
1 28358U 04022A   26073.36572472 -.00000010  00000+0  00000+0 0  9998
2 28358   0.0209 120.8801 0001847 301.5249 240.2540  1.00281580 79607
DIRECTV 8               
1 28659U 05019A   26073.58775518  .00000000  00000+0  00000+0 0  9997
2 28659   0.0169 167.1577 0003239 200.9293 256.6402  1.00272462 76129
GALAXY 28 (G-28)        
1 28702U 05022A   26073.42048420 -.00000199  00000+0  00000+0 0  9998
2 28702   3.0532  80.1159 0002117 285.5869 290.6081  1.00273207 51028
GALAXY 16 (G-16)        
1 29236U 06023A   26073.54887536 -.00000127  00000+0  00000+0 0  9996
2 29236   0.0272 216.7862 0002729 149.9608 263.9981  1.00270622 72023
DIRECTV 9S              
1 29494U 06043A   26073.54844202 -.00000113  00000+0  00000+0 0  9992
2 29494   2.1749  82.0627 0003232 285.9308 260.4080  1.00272178 50433
GALAXY 17 (G-17)        
1 31307U 07016B   26073.55164870 -.00000206  00000+0  00000+0 0  9999
2 31307   2.7308  81.0995 0003386 283.6360 281.0195  1.00271198 68858
DIRECTV 10              
1 31862U 07032A   26073.42187088 -.00000192  00000+0  00000+0 0  9999
2 31862   0.1562  98.2368 0006798 281.3482 284.2648  0.98339909 44631
INTELSAT 11 (IS-11)     
1 32253U 07044B   26073.60450927 -.00000146  00000+0  00000+0 0  9991
2 32253   3.3174  79.8246 0004223 210.3445 281.3410  0.99053250 67512
HORIZONS-2              
1 32388U 07063B   26073.55390205 -.00000253  00000+0  00000+0 0  9996
2 32388   2.3565  81.8134 0002412 279.5143 296.4476  1.00273126 66868
