[{"OBJECT_NAME":"INTELSAT 10 (IS-10)","OBJECT_ID":"2001-019A","EPOCH":"2026-03-14T15:08:31.348032","MEAN_MOTION":0.99038221,"ECCENTRICITY":0.00055455,"INCLINATION":8.8491,"RA_OF_ASC_NODE":60.2102,"ARG_OF_PERICENTER":275.1611,"MEAN_ANOMALY":161.8639,"EPHEMERIS_TYPE":0,"CLASSIFICATION_TYPE":"U","NORAD_CAT_ID":26766,"ELEMENT_SET_NO":999,"REV_AT_EPOCH":4464,"BSTAR":0,"MEAN_MOTION_DOT":-6.5e-7,"MEAN_MOTION_DDOT":0},{"OBJECT_NAME":"INTELSAT 902 (IS-902)","OBJECT_ID":"2001-039A","EPOCH":"2026-03-14T09:58:52.969440","MEAN_MOTION":1.00271092,"ECCENTRICITY":0.00046076,"INCLINATION":5.8785,"RA_OF_ASC_NODE":72.9325,"ARG_OF_PERICENTER":281.7779,"MEAN_ANOMALY":276.9306,"EPHEMERIS_TYPE":0,"CLASSIFICATION_TYPE":"U","NORAD_CAT_ID":26900,"ELEMENT_SET_NO":999,"REV_AT_EPOCH":8974,"BSTAR":0,"MEAN_MOTION_DOT":-2.81e-6,"MEAN_MOTION_DDOT":0},{"OBJECT_NAME":"INTELSAT 904 (IS-904)","OBJECT_ID":"2002-007A","EPOCH":"2026-03-14T08:21:32.304384","MEAN_MOTION":1.00271089,"ECCENTRICITY":0.0006662,"INCLINATION":6.6822,"RA_OF_ASC_NODE":70.3156,"ARG_OF_PERICENTER":315.8189,"MEAN_ANOMALY":239.7306,"EPHEMERIS_TYPE":0,"CLASSIFICATION_TYPE":"U","NORAD_CAT_ID":27380,"ELEMENT_SET_NO":999,"REV_AT_EPOCH":5081,"BSTAR":0,"MEAN_MOTION_DOT":-2.23e-6,"MEAN_MOTION_DDOT":0},{"OBJECT_NAME":"DIRECTV 5 (TEMPO 1)","OBJECT_ID":"2002-023A","EPOCH":"2026-03-14T13:07:15.629952","MEAN_MOTION":1.00272227,"ECCENTRICITY":0.00034553,"INCLINATION":4.6347,"RA_OF_ASC_NODE":76.4858,"ARG_OF_PERICENTER":284.7499,"MEAN_ANOMALY":257.6381,"EPHEMERIS_TYPE":0,"CLASSIFICATION_TYPE":"U","NORAD_CAT_ID":27426,"ELEMENT_SET_NO":999,"REV_AT_EPOCH":8717,"BSTAR":0,"MEAN_MOTION_DOT":-5.6e-7,"MEAN_MOTION_DDOT":0},{"OBJECT_NAME":"INTELSAT 905 (IS-905)","OBJECT_ID":"2002-027A","EPOCH":"2026-03-08T16:38:59.462592","MEAN_MOTION":1.00272811,"ECCENTRICITY":0.00031045,"INCLINATION":6.5009,"RA_OF_ASC_NODE":71.0066,"ARG_OF_PERICENTER":285.0028,"MEAN_ANOMALY":282.9238,"EPHEMERIS_TYPE":0,"CLASSIFICATION_TYPE":"U","NORAD_CAT_ID":27438,"ELEMENT_SET_NO":999,"REV_AT_EPOCH":5035,"BSTAR":0,"MEAN_MOTION_DOT":9.5e-7,"MEAN_MOTION_DDOT":0},{"OBJECT_NAME":"GALAXY 3C (G-3C)","OBJECT_ID":"2002-030A","EPOCH":"2026-03-14T13:11:37.712256","MEAN_MOTION":1.00272041,"ECCENTRICITY":0.00013638,"INCLINATION":3.4874,"RA_OF_ASC_NODE":79.3067,"ARG_OF_PERICENTER":24.869,"MEAN_ANOMALY":171.0641,"EPHEMERIS_TYPE":0,"CLASSIFICATION_TYPE":"U","NORAD_CAT_ID":27445,"ELEMENT_SET_NO":999,"REV_AT_EPOCH":4554,"BSTAR":0,"MEAN_MOTION_DOT":-1.52e-6,"MEAN_MOTION_DDOT":0},{"OBJECT_NAME":"INTELSAT 906 (IS-906)","OBJECT_ID":"2002-041A","EPOCH":"2026-03-14T13:56:55.868352","MEAN_MOTION":1.00271488,"ECCENTRICITY":0.00030361,"INCLINATION":5.5629,"RA_OF_ASC_NODE":74.0792,"ARG_OF_PERICENTER":277.5454,"MEAN_ANOMALY":93.929,"EPHEMERIS_TYPE":0,"CLASSIFICATION_TYPE":"U","NORAD_CAT_ID":27513,"ELEMENT_SET_NO":999,"REV_AT_EPOCH":8608,"BSTAR":0,"MEAN_MOTION_DOT":1.5e-7,"MEAN_MOTION_DDOT":0},{"OBJECT_NAME":"GALAXY 13 (HORIZONS-1)","OBJECT_ID":"2003-044A","EPOCH":"2026-03-14T12:29:44.106432","MEAN_MOTION":1.00271614,"ECCENTRICITY":0.00022086,"INCLINATION":1.1737,"RA_OF_ASC_NODE":85.1203,"ARG_OF_PERICENTER":267.2445,"MEAN_ANOMALY":217.1716,"EPHEMERIS_TYPE":0,"CLASSIFICATION_TYPE":"U","NORAD_CAT_ID":27954,"ELEMENT_SET_NO":999,"REV_AT_EPOCH":4562,"BSTAR":0,"MEAN_MOTION_DOT":1.32e-6,"MEAN_MOTION_DDOT":0},{"OBJECT_NAME":"INTELSAT 10-02","OBJECT_ID":"2004-022A","EPOCH":"2026-03-14T08:46:38.615808","MEAN_MOTION":1.0028158,"ECCENTRICITY":0.00018472,"INCLINATION":0.0209,"RA_OF_ASC_NODE":120.8801,"ARG_OF_PERICENTER":301.5249,"MEAN_ANOMALY":240.254,"EPHEMERIS_TYPE":0,"CLASSIFICATION_TYPE":"U","NORAD_CAT_ID":28358,"ELEMENT_SET_NO":999,"REV_AT_EPOCH":7960,"BSTAR":0,"MEAN_MOTION_DOT":-1.0e-7,"MEAN_MOTION_DDOT":0},{"OBJECT_NAME":"DIRECTV 8","OBJECT_ID":"2005-019A","EPOCH":"2026-03-14T14:06:22.047552","MEAN_MOTION":1.00272462,"ECCENTRICITY":0.00032392,"INCLINATION":0.0169,"RA_OF_ASC_NODE":167.1577,"ARG_OF_PERICENTER":200.9293,"MEAN_ANOMALY":256.6402,"EPHEMERIS_TYPE":0,"CLASSIFICATION_TYPE":"U","NORAD_CAT_ID":28659,"ELEMENT_SET_NO":999,"REV_AT_EPOCH":7612,"BSTAR":0,"MEAN_MOTION_DOT":0,"MEAN_MOTION_DDOT":0},{"OBJECT_NAME":"GALAXY 28 (G-28)","OBJECT_ID":"2005-022A","EPOCH":"2026-03-14T10:05:29.834880","MEAN_MOTION":1.00273207,"ECCENTRICITY":0.0002117,"INCLINATION":3.0532,"RA_OF_ASC_NODE":80.1159,"ARG_OF_PERICENTER":285.5869,"MEAN_ANOMALY":290.6081,"EPHEMERIS_TYPE":0,"CLASSIFICATION_TYPE":"U","NORAD_CAT_ID":28702,"ELEMENT_SET_NO":999,"REV_AT_EPOCH":5102,"BSTAR":0,"MEAN_MOTION_DOT":-1.99e-6,"MEAN_MOTION_DDOT":0},{"OBJECT_NAME":"GALAXY 16 (G-16)","OBJECT_ID":"2006-023A","EPOCH":"2026-03-14T13:10:22.831104","MEAN_MOTION":1.00270622,"ECCENTRICITY":0.00027294,"INCLINATION":0.0272,"RA_OF_ASC_NODE":216.7862,"ARG_OF_PERICENTER":149.9608,"MEAN_ANOMALY":263.9981,"EPHEMERIS_TYPE":0,"CLASSIFICATION_TYPE":"U","NORAD_CAT_ID":29236,"ELEMENT_SET_NO":999,"REV_AT_EPOCH":7202,"BSTAR":0,"MEAN_MOTION_DOT":-1.27e-6,"MEAN_MOTION_DDOT":0},{"OBJECT_NAME":"DIRECTV 9S","OBJECT_ID":"2006-043A","EPOCH":"2026-03-14T13:09:45.390528","MEAN_MOTION":1.00272178,"ECCENTRICITY":0.00032322,"INCLINATION":2.1749,"RA_OF_ASC_NODE":82.0627,"ARG_OF_PERICENTER":285.9308,"MEAN_ANOMALY":260.408,"EPHEMERIS_TYPE":0,"CLASSIFICATION_TYPE":"U","NORAD_CAT_ID":29494,"ELEMENT_SET_NO":999,"REV_AT_EPOCH":5043,"BSTAR":0,"MEAN_MOTION_DOT":-1.13e-6,"MEAN_MOTION_DDOT":0},{"OBJECT_NAME":"GALAXY 17 (G-17)","OBJECT_ID":"2007-016B","EPOCH":"2026-03-14T13:14:22.447680","MEAN_MOTION":1.00271198,"ECCENTRICITY":0.00033868,"INCLINATION":2.7308,"RA_OF_ASC_NODE":81.0995,"ARG_OF_PERICENTER":283.636,"MEAN_ANOMALY":281.0195,"EPHEMERIS_TYPE":0,"CLASSIFICATION_TYPE":"U","NORAD_CAT_ID":31307,"ELEMENT_SET_NO":999,"REV_AT_EPOCH":6885,"BSTAR":0,"MEAN_MOTION_DOT":-2.06e-6,"MEAN_MOTION_DDOT":0},{"OBJECT_NAME":"DIRECTV 10","OBJECT_ID":"2007-032A","EPOCH":"2026-03-14T10:07:29.644032","MEAN_MOTION":0.98339909,"ECCENTRICITY":0.00067983,"INCLINATION":0.1562,"RA_OF_ASC_NODE":98.2368,"ARG_OF_PERICENTER":281.3482,"MEAN_ANOMALY":284.2648,"EPHEMERIS_TYPE":0,"CLASSIFICATION_TYPE":"U","NORAD_CAT_ID":31862,"ELEMENT_SET_NO":999,"REV_AT_EPOCH":4463,"BSTAR":0,"MEAN_MOTION_DOT":-1.92e-6,"MEAN_MOTION_DDOT":0},{"OBJECT_NAME":"INTELSAT 11 (IS-11)","OBJECT_ID":"2007-044B","EPOCH":"2026-03-14T14:30:29.600928","MEAN_MOTION":0.9905325,"ECCENTRICITY":0.00042238,"INCLINATION":3.3174,"RA_OF_ASC_NODE":79.8246,"ARG_OF_PERICENTER":210.3445,"MEAN_ANOMALY":281.341,"EPHEMERIS_TYPE":0,"CLASSIFICATION_TYPE":"U","NORAD_CAT_ID":32253,"ELEMENT_SET_NO":999,"REV_AT_EPOCH":6751,"BSTAR":0,"MEAN_MOTION_DOT":-1.46e-6,"MEAN_MOTION_DDOT":0},{"OBJECT_NAME":"HORIZONS-2","OBJECT_ID":"2007-063B","EPOCH":"2026-03-14T13:17:37.137120","MEAN_MOTION":1.00273126,"ECCENTRICITY":0.00024121,"INCLINATION":2.3565,"RA_OF_ASC_NODE":81.8134,"ARG_OF_PERICENTER":279.5143,"MEAN_ANOMALY":296.4476,"EPHEMERIS_TYPE":0,"CLASSIFICATION_TYPE":"U","NORAD_CAT_ID":32388,"ELEMENT_SET_NO":999,"REV_AT_EPOCH":6686,"BSTAR":0,"MEAN_MOTION_DOT":-2.53e-6,"MEAN_MOTION_DDOT":0}]
